HIMAWARI-8              
1 40267U 14060A   23338.90396546 -.00000258  00000+0  00000+0 0  9995
2 40267   0.0457 132.7289 0000981 140.5766 266.2394  1.00272534 33480
